{
    "links": {
        "self": "http://www.neowsapp.com/rest/v1/neo/3433063?api_key=iIulBulltgU6a56xZRHN4H3l9WmuAYTsLGpBGhQ2"
    },
    "id": "3433063",
    "neo_reference_id": "3433063",
    "name": "(2008 UM3)",
    "designation": "2008 UM3",
    "nasa_jpl_url": "http://ssd.jpl.nasa.gov/sbdb.cgi?sstr=3433063",
    "absolute_magnitude_h": 24.9,
    "estimated_diameter": {
        "kilometers": {
            "estimated_diameter_min": 0.0278326768,
            "estimated_diameter_max": 0.0622357573
        },
        "meters": {
            "estimated_diameter_min": 27.8326768072,
            "estimated_diameter_max": 62.2357573367
        },
        "miles": {
            "estimated_diameter_min": 0.0172944182,
            "estimated_diameter_max": 0.0386714948
        },
        "feet": {
            "estimated_diameter_min": 91.3145593761,
            "estimated_diameter_max": 204.1855621004
        }
    },
    "is_potentially_hazardous_asteroid": false,
    "close_approach_data": [
        {
            "close_approach_date": "2008-11-06",
            "close_approach_date_full": "2008-Nov-06 23:22",
            "epoch_date_close_approach": 1226013720000,
            "relative_velocity": {
                "kilometers_per_second": "6.0099361996",
                "kilometers_per_hour": "21635.7703186811",
                "miles_per_hour": "13443.6262849605"
            },
            "miss_distance": {
                "astronomical": "0.122930926",
                "lunar": "47.820130214",
                "kilometers": "18390204.68672762",
                "miles": "11427143.308656356"
            },
            "orbiting_body": "Earth"
        }
    ],
    "orbital_data": {
        "orbit_id": "8",
        "orbit_determination_date": "2017-04-06 09:02:28",
        "first_observation_date": "2008-10-24",
        "last_observation_date": "2008-10-31",
        "data_arc_in_days": 7,
        "observations_used": 20,
        "orbit_uncertainty": "9",
        "minimum_orbit_intersection": ".122457",
        "jupiter_tisserand_invariant": "4.571",
        "epoch_osculation": "2454766.5",
        "eccentricity": ".2512869887230104",
        "semi_major_axis": "1.460414239118752",
        "inclination": "10.71479609399699",
        "ascending_node_longitude": "213.7337869935971",
        "orbital_period": "644.6329714961587",
        "perihelion_distance": "1.093431142682394",
        "perihelion_argument": "211.731981464154",
        "aphelion_distance": "1.827397335555109",
        "perihelion_time": "2454799.349368017700",
        "mean_anomaly": "341.6550300569873",
        "mean_motion": ".5584573174475691",
        "equinox": "J2000",
        "orbit_class": {
            "orbit_class_type": "AMO",
            "orbit_class_description": "Near-Earth asteroid orbits similar to that of 1221 Amor",
            "orbit_class_range": "1.017 AU < q (perihelion) < 1.3 AU"
        }
    },
    "is_sentry_object": false
}